0 DELTA 1 R/B
1 00341U 62029B   13280.18819877  .00000127  00000-0  12732-2 0  5397
2 00341 044.7876 225.4711 2422738 017.3893 087.5289 09.14200585711481
0 DELTA 1 R/B
1 00341U 62029B   13284.23948439  .00000053  00000-0  72356-3 0  5403
2 00341 044.7879 217.9069 2423046 025.4738 100.8164 09.14202712711853
0 DELTA 1 R/B
1 00341U 62029B   13289.15762502  .00000119  00000-0  12358-2 0  5413
2 00341 044.7881 208.7255 2423615 035.2864 087.0696 09.14203715712303
0 DELTA 1 R/B
1 00341U 62029B   13293.83570189  .00000123  00000-0  12689-2 0  5424
2 00341 044.7877 199.9911 2423969 044.6214 003.2597 09.14205403712736
